DATA_TYPE EVENT IMS1.0
Reviewed ISC Bulletin
Event   611019465 Mindanao
   Date       Time        Err   RMS Latitude Longitude  Smaj  Smin  Az Depth   Err Ndef Nsta Gap  mdist  Mdist Qual   Author      OrigID
2015/01/01 00:26:53.96        0.850   8.2270  125.2380                  34.0               4                          MAN       09078749

Magnitude  Err Nsta Author      OrigID
mb     4.2          MAN       09078749
ML     3.0          MAN       09078749
MS     2.6          MAN       09078749

Event   606930640 Halmahera
   Date       Time        Err   RMS Latitude Longitude  Smaj  Smin  Az Depth   Err Ndef Nsta Gap  mdist  Mdist Qual   Author      OrigID
2015/01/01 00:41:07.79   1.15 0.670   2.7849  128.6549  75.2  21.5  71   0.0f         5      155  23.27  85.13     uk IDC       05670441

Magnitude  Err Nsta Author      OrigID
mb     3.4 0.1    5 IDC       05670441
mb1    3.6 0.1    5 IDC       05670441
mb1mx  3.2 0.1   54 IDC       05670441
mbtmp  3.4 0.1    5 IDC       05670441
MS     3.6 0.2    1 IDC       05670441
Ms1    3.6 0.2    1 IDC       05670441
ms1mx  2.4 0.1   27 IDC       05670441